{
    "links": {
        "self": "http://www.neowsapp.com/rest/v1/neo/3255172?api_key=iIulBulltgU6a56xZRHN4H3l9WmuAYTsLGpBGhQ2"
    },
    "id": "3255172",
    "neo_reference_id": "3255172",
    "name": "(2004 SU26)",
    "designation": "2004 SU26",
    "nasa_jpl_url": "http://ssd.jpl.nasa.gov/sbdb.cgi?sstr=3255172",
    "absolute_magnitude_h": 24.9,
    "estimated_diameter": {
        "kilometers": {
            "estimated_diameter_min": 0.0278326768,
            "estimated_diameter_max": 0.0622357573
        },
        "meters": {
            "estimated_diameter_min": 27.8326768072,
            "estimated_diameter_max": 62.2357573367
        },
        "miles": {
            "estimated_diameter_min": 0.0172944182,
            "estimated_diameter_max": 0.0386714948
        },
        "feet": {
            "estimated_diameter_min": 91.3145593761,
            "estimated_diameter_max": 204.1855621004
        }
    },
    "is_potentially_hazardous_asteroid": false,
    "close_approach_data": [
        {
            "close_approach_date": "2004-09-20",
            "close_approach_date_full": "2004-Sep-20 08:44",
            "epoch_date_close_approach": 1095669840000,
            "relative_velocity": {
                "kilometers_per_second": "17.5824066846",
                "kilometers_per_hour": "63296.6640644668",
                "miles_per_hour": "39330.0855127238"
            },
            "miss_distance": {
                "astronomical": "0.0345616264",
                "lunar": "13.4444726696",
                "kilometers": "5170345.693175768",
                "miles": "3212703.8386828784"
            },
            "orbiting_body": "Earth"
        }
    ],
    "orbital_data": {
        "orbit_id": "6",
        "orbit_determination_date": "2017-04-06 09:12:12",
        "first_observation_date": "2004-09-23",
        "last_observation_date": "2004-09-24",
        "data_arc_in_days": 1,
        "observations_used": 11,
        "orbit_uncertainty": "9",
        "minimum_orbit_intersection": ".0185873",
        "jupiter_tisserand_invariant": "4.476",
        "epoch_osculation": "2453272.5",
        "eccentricity": ".5465187871086351",
        "semi_major_axis": "1.436492274097446",
        "inclination": "14.13613631846435",
        "ascending_node_longitude": "184.1467588756669",
        "orbital_period": "628.8591273574428",
        "perihelion_distance": ".6514222587667848",
        "perihelion_argument": "83.8763741722467",
        "aphelion_distance": "2.221562289428107",
        "perihelion_time": "2453214.483510186974",
        "mean_anomaly": "33.21242457027711",
        "mean_motion": ".5724652538840808",
        "equinox": "J2000",
        "orbit_class": {
            "orbit_class_type": "APO",
            "orbit_class_description": "Near-Earth asteroid orbits which cross the Earth’s orbit similar to that of 1862 Apollo",
            "orbit_class_range": "a (semi-major axis) > 1.0 AU; q (perihelion) < 1.017 AU"
        }
    },
    "is_sentry_object": false
}